ONEWEB-0578             
1 56067U 23043X   24205.19458593  .00000106  00000+0  22413-3 0  9994
2 56067  87.9281  22.1256 0001916  94.7243 265.4109 13.21825475 67463
ONEWEB-0579             
1 56068U 23043Y   24204.95803766  .00000054  00000+0  99018-4 0  9992
2 56068  87.9279  22.1690 0001854  77.4114 282.7228 13.21826710 66533
ONEWEB-0581             
1 56069U 23043Z   24204.91803802  .00000036  00000+0  60248-4 0  9993
2 56069  87.9112   7.0180 0002319  86.0780 274.0616 13.16594815 67604
ONEWEB-0609             
1 56070U 23043AA  24204.93246484  .00000009  00000+0 -98593-5 0  9990
2 56070  87.9019  37.3695 0001665  85.5227 274.6093 13.15548795 65150
ONEWEB-0613             
1 56071U 23043AB  24205.07982624  .00000094  00000+0  21501-3 0  9996
2 56071  87.9022  37.3377 0001700  76.1523 283.9796 13.15548541 66082
ONEWEB-0630             
1 56072U 23043AC  24205.07507435  .00000098  00000+0  22705-3 0  9991
2 56072  87.9018  37.3284 0001576  75.3154 284.8151 13.15549099 66070
ONEWEB-0632             
1 56073U 23043AD  24205.07031412  .00000257  00000+0  64902-3 0  9991
2 56073  87.9019  37.3481 0002090  80.8557 279.2810 13.15550496 66074
ONEWEB-0633             
1 56074U 23043AE  24205.06397455  .00000163  00000+0  40018-3 0  9991
2 56074  87.9016  37.3298 0001353  71.4105 288.7172 13.15548034 66053
